{
  "type": "FeatureCollection",
  "features": [
    {
      "type": "Feature",
      "properties": {
        "norad_id": 28054,
        "name": "DMSP 5D-3 F16 (USA 172)",
        "group": "weather",
        "lat": 7.4795315584709385,
        "lon": 8.514431006127614,
        "alt_km": 844.1290961598161,
        "timestamp": "2025-12-18T04:58:34.224049+00:00",
        "meta_object_name": "DMSP 5D-3 F16 (USA 172)",
        "meta_object_id": "2003-048A",
        "meta_epoch": "2025-12-17T22:26:50.618112",
        "meta_mean_motion": 14.1442618,
        "meta_eccentricity": 0.00063444,
        "meta_inclination": 99.0041,
        "meta_ra_of_asc_node": 9.4331,
        "meta_arg_of_pericenter": 304.4018,
        "meta_mean_anomaly": 118.8191,
        "meta_ephemeris_type": 0,
        "meta_classification_type": "U",
        "meta_norad_cat_id": 28054,
        "meta_element_set_no": 999,
        "meta_rev_at_epoch": 14386,
        "meta_bstar": 8.1554179e-05,
        "meta_mean_motion_dot": 1.11e-06,
        "meta_mean_motion_ddot": 0,
        "tle_line1": "1 28054U 03048A   25351.93530808  .00000111  00000+0  81554-4 0  9995",
        "tle_line2": "2 28054  99.0041   9.4331 0006344 304.4018 118.8191 14.14426180143863"
      },
      "geometry": {
        "type": "Point",
        "coordinates": [
          8.514431006127614,
          7.4795315584709385
        ]
      }
    },
    {
      "type": "Feature",
      "properties": {
        "norad_id": 28912,
        "name": "METEOSAT-9 (MSG-2)",
        "group": "weather",
        "lat": 4.2407962089089,
        "lon": -152.22271394260693,
        "alt_km": 35772.38195757435,
        "timestamp": "2025-12-18T04:58:34.224108+00:00",
        "meta_object_name": "METEOSAT-9 (MSG-2)",
        "meta_object_id": "2005-049B",
        "meta_epoch": "2025-12-17T18:40:44.289696",
        "meta_mean_motion": 1.00279199,
        "meta_eccentricity": 0.00033756,
        "meta_inclination": 8.9502,
        "meta_ra_of_asc_node": 55.9296,
        "meta_arg_of_pericenter": 190.8164,
        "meta_mean_anomaly": 165.8697,
        "meta_ephemeris_type": 0,
        "meta_classification_type": "U",
        "meta_norad_cat_id": 28912,
        "meta_element_set_no": 999,
        "meta_rev_at_epoch": 517,
        "meta_bstar": 0,
        "meta_mean_motion_dot": 1.4e-06,
        "meta_mean_motion_ddot": 0,
        "tle_line1": "1 28912U 05049B   25351.77829039  .00000140  00000+0  00000+0 0  9994",
        "tle_line2": "2 28912   8.9502  55.9296 0003375 190.8164 165.8697  1.00279199  5174"
      },
      "geometry": {
        "type": "Point",
        "coordinates": [
          -152.22271394260693,
          4.2407962089089
        ]
      }
    },
    {
      "type": "Feature",
      "properties": {
        "norad_id": 29522,
        "name": "DMSP 5D-3 F17 (USA 191)",
        "group": "weather",
        "lat": -41.764547808994884,
        "lon": 5.377553847521468,
        "alt_km": 851.410143748979,
        "timestamp": "2025-12-18T04:58:34.224127+00:00",
        "meta_object_name": "DMSP 5D-3 F17 (USA 191)",
        "meta_object_id": "2006-050A",
        "meta_epoch": "2025-12-17T22:23:15.500256",
        "meta_mean_motion": 14.14921833,
        "meta_eccentricity": 0.00096027,
        "meta_inclination": 98.7391,
        "meta_ra_of_asc_node": 357.2138,
        "meta_arg_of_pericenter": 209.1551,
        "meta_mean_anomaly": 150.9088,
        "meta_ephemeris_type": 0,
        "meta_classification_type": "U",
        "meta_norad_cat_id": 29522,
        "meta_element_set_no": 999,
        "meta_rev_at_epoch": 98678,
        "meta_bstar": 9.7501517e-05,
        "meta_mean_motion_dot": 1.45e-06,
        "meta_mean_motion_ddot": 0,
        "tle_line1": "1 29522U 06050A   25351.93281829  .00000145  00000+0  97502-4 0  9995",
        "tle_line2": "2 29522  98.7391 357.2138 0009602 209.1551 150.9088 14.14921833986783"
      },
      "geometry": {
        "type": "Point",
        "coordinates": [
          5.377553847521468,
          -41.764547808994884
        ]
      }
    },
    {
      "type": "Feature",
      "properties": {
        "norad_id": 32958,
        "name": "FENGYUN 3A",
        "group": "weather",
        "lat": 56.996337610186025,
        "lon": 125.20622250726679,
        "alt_km": 826.9892203944846,
        "timestamp": "2025-12-18T04:58:34.224142+00:00",
        "meta_object_name": "FENGYUN 3A",
        "meta_object_id": "2008-026A",
        "meta_epoch": "2025-12-17T18:15:12.197376",
        "meta_mean_motion": 14.19516208,
        "meta_eccentricity": 0.00077297,
        "meta_inclination": 98.6701,
        "meta_ra_of_asc_node": 291.1816,
        "meta_arg_of_pericenter": 294.451,
        "meta_mean_anomaly": 65.586,
        "meta_ephemeris_type": 0,
        "meta_classification_type": "U",
        "meta_norad_cat_id": 32958,
        "meta_element_set_no": 999,
        "meta_rev_at_epoch": 90966,
        "meta_bstar": 5.4639693e-05,
        "meta_mean_motion_dot": 7.2e-07,
        "meta_mean_motion_ddot": 0,
        "tle_line1": "1 32958U 08026A   25351.76055784  .00000072  00000+0  54640-4 0  9992",
        "tle_line2": "2 32958  98.6701 291.1816 0007729 294.4510  65.5860 14.19516208909665"
      },
      "geometry": {
        "type": "Point",
        "coordinates": [
          125.20622250726679,
          56.996337610186025
        ]
      }
    },
    {
      "type": "Feature",
      "properties": {
        "norad_id": 35491,
        "name": "GOES 14",
        "group": "weather",
        "lat": -0.705672508128354,
        "lon": 48.50771440963265,
        "alt_km": 35837.20157479429,
        "timestamp": "2025-12-18T04:58:34.224157+00:00",
        "meta_object_name": "GOES 14",
        "meta_object_id": "2009-033A",
        "meta_epoch": "2025-12-17T16:12:50.951808",
        "meta_mean_motion": 1.00096698,
        "meta_eccentricity": 5.283e-05,
        "meta_inclination": 1.2154,
        "meta_ra_of_asc_node": 85.3504,
        "meta_arg_of_pericenter": 175.8954,
        "meta_mean_anomaly": 315.6433,
        "meta_ephemeris_type": 0,
        "meta_classification_type": "U",
        "meta_norad_cat_id": 35491,
        "meta_element_set_no": 999,
        "meta_rev_at_epoch": 477,
        "meta_bstar": 0,
        "meta_mean_motion_dot": 1.1e-07,
        "meta_mean_motion_ddot": 0,
        "tle_line1": "1 35491U 09033A   25351.67558972  .00000011  00000+0  00000+0 0  9992",
        "tle_line2": "2 35491   1.2154  85.3504 0000528 175.8954 315.6433  1.00096698  4778"
      },
      "geometry": {
        "type": "Point",
        "coordinates": [
          48.50771440963265,
          -0.705672508128354
        ]
      }
    },
    {
      "type": "Feature",
      "properties": {
        "norad_id": 35951,
        "name": "DMSP 5D-3 F18 (USA 210)",
        "group": "weather",
        "lat": -2.328657036481513,
        "lon": 148.21640467727389,
        "alt_km": 852.2641780668819,
        "timestamp": "2025-12-18T04:58:34.224170+00:00",
        "meta_object_name": "DMSP 5D-3 F18 (USA 210)",
        "meta_object_id": "2009-057A",
        "meta_epoch": "2025-12-17T21:19:44.855040",
        "meta_mean_motion": 14.14772676,
        "meta_eccentricity": 0.00119475,
        "meta_inclination": 98.8838,
        "meta_ra_of_asc_node": 328.2638,
        "meta_arg_of_pericenter": 49.2383,
        "meta_mean_anomaly": 310.9825,
        "meta_ephemeris_type": 0,
        "meta_classification_type": "U",
        "meta_norad_cat_id": 35951,
        "meta_element_set_no": 999,
        "meta_rev_at_epoch": 83395,
        "meta_bstar": 0.00015510667,
        "meta_mean_motion_dot": 2.55e-06,
        "meta_mean_motion_ddot": 0,
        "tle_line1": "1 35951U 09057A   25351.88871360  .00000255  00000+0  15511-3 0  9998",
        "tle_line2": "2 35951  98.8838 328.2638 0011947  49.2383 310.9825 14.14772676833953"
      },
      "geometry": {
        "type": "Point",
        "coordinates": [
          148.21640467727389,
          -2.328657036481513
        ]
      }
    },
    {
      "type": "Feature",
      "properties": {
        "norad_id": 36411,
        "name": "EWS-G2 (GOES 15)",
        "group": "weather",
        "lat": 0.5413934866382053,
        "lon": -136.9575016173073,
        "alt_km": 35768.375140692755,
        "timestamp": "2025-12-18T04:58:34.224183+00:00",
        "meta_object_name": "EWS-G2 (GOES 15)",
        "meta_object_id": "2010-008A",
        "meta_epoch": "2025-12-17T15:07:16.805568",
        "meta_mean_motion": 1.00270754,
        "meta_eccentricity": 0.00054896,
        "meta_inclination": 0.8255,
        "meta_ra_of_asc_node": 86.0725,
        "meta_arg_of_pericenter": 176.7321,
        "meta_mean_anomaly": 111.8959,
        "meta_ephemeris_type": 0,
        "meta_classification_type": "U",
        "meta_norad_cat_id": 36411,
        "meta_element_set_no": 999,
        "meta_rev_at_epoch": 5781,
        "meta_bstar": 0,
        "meta_mean_motion_dot": 6.2e-07,
        "meta_mean_motion_ddot": 0,
        "tle_line1": "1 36411U 10008A   25351.63005562  .00000062  00000+0  00000+0 0  9993",
        "tle_line2": "2 36411   0.8255  86.0725 0005489 176.7321 111.8959  1.00270754 57819"
      },
      "geometry": {
        "type": "Point",
        "coordinates": [
          -136.9575016173073,
          0.5413934866382053
        ]
      }
    }
  ]
}